{
"type": "FeatureCollection",
"name": "neighborhoods_sample",
"crs": { "type": "name", "properties": { "name": "urn:ogc:def:crs:OGC:1.3:CRS84" } },
"features": [
{ "type": "Feature", "properties": { "name": "Downtown", "group": "core", "district": "D1" }, "geometry": { "type": "Polygon", "coordinates": [ [ [ -86.81, 36.15 ], [ -86.77, 36.15 ], [ -86.77, 36.18 ], [ -86.81, 36.18 ], [ -86.81, 36.15 ] ] ] } },
{ "type": "Feature", "properties": { "name": "Midtown", "group": "core", "district": "D2" }, "geometry": { "type": "MultiPolygon", "coordinates": [ [ [ [ -86.77, 36.16 ], [ -86.74, 36.16 ], [ -86.74, 36.18 ], [ -86.77, 36.18 ], [ -86.77, 36.16 ] ] ], [ [ [ -86.76, 36.14 ], [ -86.75, 36.14 ], [ -86.75, 36.15 ], [ -86.76, 36.15 ], [ -86.76, 36.14 ] ] ] ] } },
{ "type": "Feature", "properties": { "name": "East Side", "group": "residential", "district": "D3" }, "geometry": { "type": "Polygon", "coordinates": [ [ [ -86.74, 36.14 ], [ -86.7, 36.14 ], [ -86.7, 36.18 ], [ -86.74, 36.18 ], [ -86.74, 36.14 ] ] ] } }
]
}
